SPOT 6                  
1 38755U 12047A   26200.30370478  .00000082  00000+0  27468-4 0  9994
2 38755  98.2101 267.2341 0001109  91.7425 268.3902 14.58540069737734
SPOT 7                  
1 40053U 14034A   26200.23415020  .00000188  00000+0  47586-4 0  9991
2 40053  98.0607 261.8977 0001608  96.6196 263.5188 14.60983041641815
