{"fetched_at":"2026-07-19T17:31:57.371Z","source":"https://celestrak.org/NORAD/elements/gp.php?NAME=SPOT&FORMAT=JSON","constellation":"spot","records":[{"OBJECT_NAME":"SPOT 6","OBJECT_ID":"2012-047A","EPOCH":"2026-07-19T07:17:20.092992","CLASSIFICATION_TYPE":"U","MEAN_MOTION":14.58540069,"ECCENTRICITY":0.00011091,"INCLINATION":98.2101,"RA_OF_ASC_NODE":267.2341,"ARG_OF_PERICENTER":91.7425,"MEAN_ANOMALY":268.3902,"EPHEMERIS_TYPE":0,"NORAD_CAT_ID":38755,"ELEMENT_SET_NO":999,"REV_AT_EPOCH":73773,"BSTAR":0.000027468121,"MEAN_MOTION_DOT":8.2e-7,"MEAN_MOTION_DDOT":0},{"OBJECT_NAME":"SPOT 7","OBJECT_ID":"2014-034A","EPOCH":"2026-07-19T05:37:10.577280","CLASSIFICATION_TYPE":"U","MEAN_MOTION":14.60983041,"ECCENTRICITY":0.00016084,"INCLINATION":98.0607,"RA_OF_ASC_NODE":261.8977,"ARG_OF_PERICENTER":96.6196,"MEAN_ANOMALY":263.5188,"EPHEMERIS_TYPE":0,"NORAD_CAT_ID":40053,"ELEMENT_SET_NO":999,"REV_AT_EPOCH":64181,"BSTAR":0.000047585795,"MEAN_MOTION_DOT":0.00000188,"MEAN_MOTION_DDOT":0}]}
